CZ-2C R/B               
1 54039U 22132E   25345.96295057  .00046271  00000+0  68728-3 0  9996
2 54039  97.2955 342.1467 0023313  59.8004 300.5555 15.54736891176719
GSLV R/B                
1 54149U 22138AN  25345.98627715  .00004481  00000+0  39365-3 0  9998
2 54149  87.3828 195.7265 0024073 107.8794 252.5066 14.96123943170813
XRISM                   
1 57800U 23137A   25345.64463499  .00008786  00000+0  51677-3 0  9997
2 57800  31.0009 132.6140 0007680 234.5951 125.3971 15.10326363124467
ACS3                    
1 59588U 24077B   25345.88737439  .00038049  00000+0  32502-1 0  9999
2 59588  97.2688 301.6838 0077732 340.1106  19.7030 13.85421610 82020
SZ-21 MODULE            
1 66515U 25246C   25345.51652335  .00042118  00000+0  46259-3 0  9995
2 66515  41.4773  23.5075 0006302 253.7333 106.2813 15.62393058  4254
