CCSDS_OMM_VERS = 2.0
CREATION_DATE  = 
ORIGINATOR     = 

OBJECT_NAME    = CZ-2C R/B
OBJECT_ID      = 2022-132E
CENTER_NAME    = EARTH
REF_FRAME      = TEME
TIME_SYSTEM    = UTC
MEAN_ELEMENT_THEORY = SGP/SGP4

EPOCH          = 2025-12-11T23:06:38.929248
MEAN_MOTION    = 15.54736891
ECCENTRICITY   = .00233134
INCLINATION    = 97.2955
RA_OF_ASC_NODE = 342.1467
ARG_OF_PERICENTER = 59.8004
MEAN_ANOMALY   = 300.5555

EPHEMERIS_TYPE = 0
CLASSIFICATION_TYPE = U
NORAD_CAT_ID   = 54039
ELEMENT_SET_NO = 999
REV_AT_EPOCH   = 17671
BSTAR          = .68727883E-3
MEAN_MOTION_DOT = .46271E-3
MEAN_MOTION_DDOT = 0

CCSDS_OMM_VERS = 2.0
CREATION_DATE  = 
ORIGINATOR     = 

OBJECT_NAME    = GSLV R/B
OBJECT_ID      = 2022-138AN
CENTER_NAME    = EARTH
REF_FRAME      = TEME
TIME_SYSTEM    = UTC
MEAN_ELEMENT_THEORY = SGP/SGP4

EPOCH          = 2025-12-11T23:40:14.345760
MEAN_MOTION    = 14.96123943
ECCENTRICITY   = .00240735
INCLINATION    = 87.3828
RA_OF_ASC_NODE = 195.7265
ARG_OF_PERICENTER = 107.8794
MEAN_ANOMALY   = 252.5066

EPHEMERIS_TYPE = 0
CLASSIFICATION_TYPE = U
NORAD_CAT_ID   = 54149
ELEMENT_SET_NO = 999
REV_AT_EPOCH   = 17081
BSTAR          = .39364909E-3
MEAN_MOTION_DOT = .4481E-4
MEAN_MOTION_DDOT = 0

CCSDS_OMM_VERS = 2.0
CREATION_DATE  = 
ORIGINATOR     = 

OBJECT_NAME    = XRISM
OBJECT_ID      = 2023-137A
CENTER_NAME    = EARTH
REF_FRAME      = TEME
TIME_SYSTEM    = UTC
MEAN_ELEMENT_THEORY = SGP/SGP4

EPOCH          = 2025-12-11T15:28:16.463136
MEAN_MOTION    = 15.10326363
ECCENTRICITY   = .000768
INCLINATION    = 31.0009
RA_OF_ASC_NODE = 132.6140
ARG_OF_PERICENTER = 234.5951
MEAN_ANOMALY   = 125.3971

EPHEMERIS_TYPE = 0
CLASSIFICATION_TYPE = U
NORAD_CAT_ID   = 57800
ELEMENT_SET_NO = 999
REV_AT_EPOCH   = 12446
BSTAR          = .5167665E-3
MEAN_MOTION_DOT = .8786E-4
MEAN_MOTION_DDOT = 0

CCSDS_OMM_VERS = 2.0
CREATION_DATE  = 
ORIGINATOR     = 

OBJECT_NAME    = ACS3
OBJECT_ID      = 2024-077B
CENTER_NAME    = EARTH
REF_FRAME      = TEME
TIME_SYSTEM    = UTC
MEAN_ELEMENT_THEORY = SGP/SGP4

EPOCH          = 2025-12-11T21:17:49.147296
MEAN_MOTION    = 13.85421610
ECCENTRICITY   = .00777322
INCLINATION    = 97.2688
RA_OF_ASC_NODE = 301.6838
ARG_OF_PERICENTER = 340.1106
MEAN_ANOMALY   = 19.7030

EPHEMERIS_TYPE = 0
CLASSIFICATION_TYPE = U
NORAD_CAT_ID   = 59588
ELEMENT_SET_NO = 999
REV_AT_EPOCH   = 8202
BSTAR          = .32502324E-1
MEAN_MOTION_DOT = .38049E-3
MEAN_MOTION_DDOT = 0

CCSDS_OMM_VERS = 2.0
CREATION_DATE  = 
ORIGINATOR     = 

OBJECT_NAME    = SZ-21 MODULE
OBJECT_ID      = 2025-246C
CENTER_NAME    = EARTH
REF_FRAME      = TEME
TIME_SYSTEM    = UTC
MEAN_ELEMENT_THEORY = SGP/SGP4

EPOCH          = 2025-12-11T12:23:47.617440
MEAN_MOTION    = 15.62393058
ECCENTRICITY   = .00063024
INCLINATION    = 41.4773
RA_OF_ASC_NODE = 23.5075
ARG_OF_PERICENTER = 253.7333
MEAN_ANOMALY   = 106.2813

EPHEMERIS_TYPE = 0
CLASSIFICATION_TYPE = U
NORAD_CAT_ID   = 66515
ELEMENT_SET_NO = 999
REV_AT_EPOCH   = 425
BSTAR          = .46258705E-3
MEAN_MOTION_DOT = .42118E-3
MEAN_MOTION_DDOT = 0

